[{"OBJECT_NAME":"STARLINK-4030","OBJECT_ID":"2022-053AU","EPOCH":"2026-03-09T12:40:12.884160","MEAN_MOTION":15.08835058,"ECCENTRICITY":0.00012912,"INCLINATION":53.2175,"RA_OF_ASC_NODE":149.8407,"ARG_OF_PERICENTER":96.0311,"MEAN_ANOMALY":264.0828,"EPHEMERIS_TYPE":0,"CLASSIFICATION_TYPE":"U","NORAD_CAT_ID":52698,"ELEMENT_SET_NO":999,"REV_AT_EPOCH":21105,"BSTAR":5.8613354e-5,"MEAN_MOTION_DOT":6.45e-6,"MEAN_MOTION_DDOT":0},{"OBJECT_NAME":"YUNYAO-1 48","OBJECT_ID":"2025-059F","EPOCH":"2026-03-09T22:24:05.789376","MEAN_MOTION":15.10574052,"ECCENTRICITY":0.00165064,"INCLINATION":97.6074,"RA_OF_ASC_NODE":250.9983,"ARG_OF_PERICENTER":137.6901,"MEAN_ANOMALY":222.5605,"EPHEMERIS_TYPE":0,"CLASSIFICATION_TYPE":"U","NORAD_CAT_ID":63349,"ELEMENT_SET_NO":999,"REV_AT_EPOCH":5331,"BSTAR":0.00030523847,"MEAN_MOTION_DOT":4.989e-5,"MEAN_MOTION_DDOT":0}]
